C/2021 A4 (NEOWISE),e,111.5338,307.1128,204.7054,42.50037,0.0035573,0.97300917,0.0000,03/19.8004/2021,2000,g 16.0,4.0
# From MPEC 2021-BE3
P/2021 A5 (PANSTARRS),e,18.1845,328.7644,61.3193,3.047644,0.1852498,0.13990678,151.4342,02/08.0/2023,2000,g 15.0,4.0
# From MPEC 2023-BF4
C/2021 A6 (PANSTARRS),e,75.6066,164.0768,351.6468,9417,0.0000011,0.99915823,0.0000,05/03.4331/2021,2000,g  7.0,4.0
# From MPEC 2022-M88
C/2021 A7 (NEOWISE),e,78.1515,154.5089,356.0168,2543,0.0000077,0.99922672,0.0000,07/15.2143/2021,2000,g 10.0,4.0
# From MPEC 2023-C45
C/2021 A9 (PANSTARRS),h,12/01.5150/2023,158.0197,314.8419,211.4561,1.002499,7.760210,2000,6.0,4.0
# From MPEC 2021-N06
C/2021 A10 (NEOWISE),e,151.9169,188.6676,82.3530,88.13591,0.0011912,0.98567919,0.0000,03/15.1352/2021,2000,g 19.0,4.0
# From MPEC 2022-L66
C/2021 B2 (PANSTARRS),e,38.0859,120.5311,334.9715,358.6168,0.0001451,0.99299528,0.0000,05/04.3341/2021,2000,g 14.0,4.0
# From MPEC 2021-N06
C/2021 B3 (NEOWISE),e,119.4813,67.2853,293.5423,34.55801,0.0048516,0.93747628,3.3929,02/08.0/2023,2000,g 13.5,4.0
# From MPEC 2022-ED3
C/2021 C1 (Rankin),e,143.0454,186.8991,336.2513,12833,0.0000007,0.99972895,0.0000,12/06.9766/2020,2000,g 11.5,4.0
# From MPEC 2021-U31
P/2021 C2 (PANSTARRS),e,21.9340,66.4631,78.7317,9.534151,0.0334797,0.48731818,23.9168,02/08.0/2023,2000,g 12.0,4.0
# From MPEC 2021-N06
C/2021 C3 (Catalina),e,122.1646,181.9269,357.0862,62.16741,0.0020108,0.96341133,1.4593,02/08.0/2023,2000,g 14.0,4.0
# From MPEC 2022-M88
C/2021 C4 (ATLAS),h,01/17.0677/2021,132.8541,194.2781,320.2071,1.000020,4.502383,2000,9.0,4.0
# From MPEC 2022-YB4
C/2021 C5 (PANSTARRS),e,50.7815,323.6833,270.9223,2515,0.0000078,0.99871103,0.0000,02/11.0782/2023,2000,g  9.0,4.0
# From MPEC 2022-YB4
C/2021 C6 (Lemmon),h,11/13.2741/2021,164.6256,332.1586,203.5722,1.001096,3.271932,2000,12.0,4.0
# From MPEC 2022-F14
C/2021 D1 (SWAN),e,31.4350,311.2459,72.2741,99.89852,0.0009871,0.99096920,0.0000,02/27.7305/2021,2000,g 13.0,4.0
# From MPEC 2022-YN2
C/2021 D2 (ZTF),h,02/03.9833/2022,83.8193,305.6794,125.0272,1.001714,2.946254,2000,9.0,4.0
# From MPEC 2022-UY9
A/2021 E2,e,167.4883,190.8224,342.4012,227.4638,0.0002873,0.98995295,0.0000,12/10.4133/2020,2000,g 15.0,2.0
# From MPEC 2023-C45
C/2021 E3 (ZTF),h,06/11.9090/2022,112.5524,104.4739,228.8519,1.000901,1.777393,2000,8.5,4.0
# From MPEC 2022-UY9
A/2021 E4,e,116.3610,171.1719,48.2628,606.3548,0.0000660,0.99228849,0.0000,04/25.1935/2022,2000,g 13.5,2.0
# From MPEC 2022-QD9
C/2021 F1 (Lemmon-PANSTARRS),e,107.3263,203.4530,146.8205,229.5023,0.0002835,0.99566214,0.0000,04/06.8516/2022,2000,g 13.5,4.0
# From MPEC 2021-J72
C/2021 G1 (Leonard),e,131.5503,270.6995,107.4549,74.28081,0.0015395,0.95391607,0.8713,02/08.0/2023,2000,g 14.0,4.0
# From MPEC 2023-C45
C/2021 G2 (ATLAS),e,48.4734,221.0983,343.3360,5740,0.0000023,0.99913229,0.0000,09/09.7185/2024,2000,g  5.5,4.0
# From MPEC 2022-X67
C/2021 G3 (PANSTARRS),h,10/18.2380/2021,102.8761,147.4102,10.6070,1.000355,5.180365,2000,10.5,4.0
# From MPEC 2021-Y10
P/2021 HS (PANSTARRS),e,12.1647,262.3848,46.1121,4.194651,0.1147256,0.80991897,63.1812,02/08.0/2023,2000,g 22.0,4.0
# From MPEC 2022-C56
C/2021 J1 (Maury-Attard),e,92.7214,88.3546,147.3282,26.39940,0.0072663,0.93405637,5.2215,02/08.0/2023,2000,g 15.5,4.0
# From MPEC 2023-C45
C/2021 J2 (PANSTARRS),e,156.2130,23.3347,172.0326,117.8492,0.0007704,0.96007163,0.3881,02/08.0/2023,2000,g 12.0,4.0
# From MPEC 2021-S45
P/2021 J3 (ATLAS),e,14.5346,111.1620,126.0361,8.934723,0.0369048,0.44938549,48.5146,02/08.0/2023,2000,g  7.0,4.0
# From MPEC 2022-O08
C/2021 K1 (ATLAS),e,16.2756,140.9043,184.2811,12.67696,0.0218364,0.80291635,14.0779,02/08.0/2023,2000,g 11.0,4.0
# From MPEC 2022-O01
C/2021 K2 (MASTER),h,09/09.4713/2021,100.8560,282.2504,343.3608,1.001091,5.467873,2000,8.0,4.0
# From MPEC 2022-L66
C/2021 K3 (Catalina),h,02/03.1076/2022,134.7805,114.4575,182.0465,1.003233,5.229958,2000,10.0,4.0
# From MPEC 2021-W31
P/2021 L2 (Leonard),e,21.0689,266.6572,51.5128,4.049261,0.1209596,0.52120469,68.1817,02/08.0/2023,2000,g 17.0,4.0
# From MPEC 2022-UE6
C/2021 L3 (Borisov),h,02/13.9720/2022,78.5785,344.9745,91.6066,1.003085,8.457906,2000,6.0,4.0
# From MPEC 2022-TA0
P/2021 N1 (ZTF),e,11.4994,301.1635,21.2210,2.977804,0.1918050,0.67648120,117.2955,02/08.0/2023,2000,g 19.0,4.0
# From MPEC 2023-C45
P/2021 N2 (Fuls),e,13.0615,221.7372,177.4264,6.936754,0.0539473,0.45254960,24.3432,02/08.0/2023,2000,g  9.5,4.0
# From MPEC 2022-YB4
C/2021 N3 (PANSTARRS),e,26.7405,337.4931,304.7637,153.8131,0.0005167,0.96283597,0.4662,02/08.0/2023,2000,g  8.5,4.0
# From MPEC 2022-A21
C/2021 O1 (Nishimura),e,27.5861,41.6180,74.4081,2333,0.0000087,0.99966313,0.0000,08/13.9817/2021,2000,g 10.5,4.0
# From MPEC 2022-L66
C/2021 O3 (PANSTARRS),h,04/21.0474/2022,56.7940,189.0183,299.9740,1.000071,0.287159,2000,10.5,4.0
# From MPEC 2022-CN4
C/2021 P1 (PANSTARRS),e,51.6365,359.6764,40.4536,2540,0.0000077,0.99827805,0.0000,06/02.3264/2022,2000,g 11.0,4.0
# From MPEC 2022-WQ9
C/2021 P2 (PANSTARRS),e,150.0635,32.0792,76.6883,2459,0.0000081,0.99793868,0.0000,01/22.6896/2023,2000,g  9.0,4.0
# From MPEC 2021-W31
P/2021 P3 (PANSTARRS),e,27.1616,358.2394,334.1004,4.412811,0.1063239,0.33919925,65.7877,02/08.0/2023,2000,g 14.0,4.0
# From MPEC 2023-A50
C/2021 P4 (ATLAS),e,56.3106,348.0930,175.8133,315.0806,0.0001762,0.99657111,0.0000,07/30.3612/2022,2000,g  9.5,4.0
# From MPEC 2023-BF4
C/2021 Q3 (ATLAS),e,77.7661,307.9109,114.0969,75.55225,0.0015008,0.93111093,0.5670,02/08.0/2023,2000,g  8.0,4.0
# From MPEC 2023-BF4
C/2021 Q4 (Fuls),h,06/10.2742/2023,71.4734,183.3337,146.9844,1.003053,7.564959,2000,6.0,4.0
# From MPEC 2022-C56
P/2021 Q5 (ATLAS),e,10.7373,239.7530,180.9174,3.286512,0.1654250,0.62448845,87.0908,02/08.0/2023,2000,g 15.0,4.0
# From MPEC 2023-BF4
C/2021 Q6 (PANSTARRS),e,161.8474,133.5346,140.9274,23904,0.0000003,0.99963565,0.0000,03/23.4098/2024,2000,g  6.0,4.0
# From MPEC 2023-C45
C/2021 QM45 (PANSTARRS),e,22.8222,354.5893,72.8154,357.6964,0.0001457,0.99224663,0.0000,08/13.4749/2022,2000,g 11.0,4.0
# From MPEC 2022-X67
P/2021 R1 (PANSTARRS),e,5.5191,143.3565,220.3593,8.350543,0.0408444,0.41488221,17.0670,02/08.0/2023,2000,g 11.0,4.0
# From MPEC 2022-X67
C/2021 R2 (PANSTARRS),e,134.4812,16.2952,32.4270,2462,0.0000081,0.99702981,0.0000,12/26.6752/2021,2000,g  7.5,4.0
# From MPEC 2021-W31
P/2021 R3 (PANSTARRS),e,19.9279,304.2044,2.8022,3.772972,0.1344865,0.33115864,83.7657,02/08.0/2023,2000,g 16.0,4.0
# From MPEC 2021-W31
P/2021 R4 (Wierzchos),e,21.0372,321.2607,56.6741,5.621012,0.0739575,0.58602674,35.6445,02/08.0/2023,2000,g 16.0,4.0
# From MPEC 2022-Y15
P/2021 R5 (Rankin),e,7.8546,219.9583,167.4228,4.793633,0.0939089,0.30672801,36.7765,02/08.0/2023,2000,g 12.0,4.0
# From MPEC 2021-W31
P/2021 R6 (Groeller),e,34.9265,176.1152,220.7785,6.278667,0.0626474,0.59339110,29.0653,02/08.0/2023,2000,g 14.5,4.0
# From MPEC 2022-X67
C/2021 R7 (PANSTARRS),e,158.8463,170.1433,140.2720,867.5747,0.0000386,0.99348690,0.0000,04/16.5254/2021,2000,g 10.5,4.0
# From MPEC 2021-Y10
P/2021 R8 (Sheppard),e,2.2034,167.0267,190.8154,3.017557,0.1880273,0.29352362,91.8508,02/08.0/2023,2000,g 18.5,4.0
# From MPEC 2023-C45
C/2021 S1 (ATLAS),h,03/01.0416/2022,52.0760,299.8777,148.1915,1.001826,6.119289,2000,7.0,4.0
# From MPEC 2023-C45
C/2021 S3 (PANSTARRS),h,02/14.7404/2024,58.5335,215.6227,6.8754,1.000020,1.319885,2000,5.5,4.0
# From MPEC 2023-BF4
C/2021 S4 (Tsuchinshan),e,17.4800,5.4968,72.7888,164.8521,0.0004657,0.95941361,359.8475,02/08.0/2023,2000,g  6.5,4.0
# From MPEC 2022-OB6
C/2021 T1 (Lemmon),e,140.3531,56.8314,51.5318,1290,0.0000213,0.99762803,0.0000,10/14.0863/2021,2000,g 12.5,4.0
# From MPEC 2023-A50
C/2021 T2 (Fuls),h,06/07.9038/2022,117.5338,223.2319,263.5981,1.000313,1.247747,2000,12.0,4.0
# From MPEC 2023-C45
C/2021 T4 (Lemmon),h,07/31.5107/2023,160.7752,257.8685,329.7964,1.000104,1.483291,2000,7.5,4.0
# From MPEC 2022-ED3
P/2021 U1 (Wierzchos),e,30.5550,246.7783,145.0990,8.520767,0.0396265,0.71294764,19.6115,02/08.0/2023,2000,g 14.5,4.0
# From MPEC 2022-L66
P/2021 U3 (Attard-Maury),e,69.9585,75.1001,335.2338,4.192469,0.1148152,0.54985943,54.0921,02/08.0/2023,2000,g 15.5,4.0
# From MPEC 2021-W31
C/2021 U4 (Leonard),e,152.8801,241.8103,237.2921,44.75056,0.0032924,0.96004789,1.3600,02/08.0/2023,2000,g 17.0,4.0
# From MPEC 2022-WQ9
C/2021 U5 (Catalina),e,39.0504,182.7546,321.4486,216.8210,0.0003087,0.98910303,0.0000,01/26.5777/2022,2000,g 13.0,4.0
# From MPEC 2022-CN4
C/2021 V1 (Rankin),e,71.4540,207.6537,195.1243,607.0123,0.0000659,0.99503515,0.0000,04/30.4185/2022,2000,g 13.0,4.0
# From MPEC 2023-C45
P/2021 V2 (Fuls),e,12.6941,232.2832,259.8276,9.057180,0.0361588,0.61394026,0.6363,02/08.0/2023,2000,g 10.0,4.0
# From MPEC 2023-C45
C/2021 X1 (Maury-Attard),h,05/27.4819/2023,140.1213,10.5850,334.6291,1.000109,3.233613,2000,7.0,4.0
# From MPEC 2023-A50
A/2021 X2,h,07/08.0879/2022,137.1604,228.8182,193.2835,1.001130,2.994320,2000,16.0,2.0
# From MPEC 2023-C45
C/2021 Y1 (ATLAS),h,04/30.7010/2023,77.1902,244.7700,245.8147,1.000870,2.032414,2000,7.0,4.0
# From MPEC 2022-YN2
C/2022 A1 (Sarneczky),e,116.5057,285.5272,201.2228,354.3552,0.0001478,0.99646433,0.0000,01/31.1503/2022,2000,g 18.0,4.0
# From MPEC 2023-C45
C/2022 A2 (PANSTARRS),h,02/18.2662/2023,108.1470,171.5796,88.3666,1.000325,1.735288,2000,9.5,4.0
# From MPEC 2023-C45
C/2022 A3 (Lemmon-ATLAS),e,88.3487,325.4834,234.8466,930.6682,0.0000347,0.99602065,0.0000,09/28.8391/2023,2000,g  8.0,4.0
# From MPEC 2022-K19
P/2022 B1 (Wierzchos),e,10.9902,148.8457,325.4736,5.466016,0.0771255,0.65306231,26.8130,02/08.0/2023,2000,g 16.5,4.0
# From MPEC 2022-YB4
A/2022 B3,e,132.0513,286.1828,150.6842,892.3842,0.0000370,0.99585556,0.0000,01/17.5514/2022,2000,g 16.5,2.0
# From MPEC 2022-GA9
C/2022 B4 (Bok),e,20.0437,340.6542,152.9394,381.2966,0.0001324,0.99638314,0.0000,01/29.8947/2022,2000,g 21.0,4.0
# From MPEC 2022-H04
P/2022 C1 (PANSTARRS),e,4.7615,113.1376,9.3619,7.220320,0.0508007,0.44807916,23.3941,02/08.0/2023,2000,g 12.0,4.0
# From MPEC 2022-OB6
